start=new Date('2023-06-25T00:00:00.000Z').valueOf();
sats=[{"SEMIMAJOR_AXIS":"6737.167","OBJECT_NAME":"STARLINK-6326","ELEMENT_SET_NO":"999","PERIOD":"91.722","COUNTRY_CODE":"US","APOAPSIS":"361.498","GP_ID":"234527595","EPHEMERIS_TYPE":"0","SITE":"AFWTR","CENTER_NAME":"EARTH","NORAD_CAT_ID":"56787","MEAN_ANOMALY":"84.5033","LAUNCH_DATE":"2023-05-31","REV_AT_EPOCH":"412","OBJECT_ID":"2023-078W","MEAN_MOTION":"15.69953412","RA_OF_ASC_NODE":"344.9718","TLE_LINE2":"2 56787  70.0005 344.9718 0003660 275.5745  84.5033 15.69953412  4128","MEAN_MOTION_DOT":"0.00053771","CLASSIFICATION_TYPE":"U","RCS_SIZE":"LARGE","ARG_OF_PERICENTER":"275.5745","OBJECT_TYPE":"PAYLOAD","EPOCH":"2023-06-24T13:54:28.778400","PERIAPSIS":"356.566","MEAN_ELEMENT_THEORY":"SGP4","FILE":"3941717","DECAY_DATE":null,"TIME_SYSTEM":"UTC","INCLINATION":"70.0005","BSTAR":"0.00044553000000","ECCENTRICITY":"0.00036600","TLE_LINE1":"1 56787U 23078W   23175.57949975  .00053771  00000-0  44553-3 0  9993","MEAN_MOTION_DDOT":"0.0000000000000","REF_FRAME":"TEME"},{"REF_FRAME":"TEME","MEAN_MOTION_DDOT":"0.0000000000000","TLE_LINE1":"1 56788U 23078X   23175.19741384  .00013239  00000-0  11168-3 0  9997","ECCENTRICITY":"0.00033980","INCLINATION":"70.0005","BSTAR":"0.00011168000000","DECAY_DATE":null,"TIME_SYSTEM":"UTC","EPOCH":"2023-06-24T04:44:16.555776","PERIAPSIS":"356.819","MEAN_ELEMENT_THEORY":"SGP4","FILE":"3941436","OBJECT_TYPE":"PAYLOAD","ARG_OF_PERICENTER":"273.6167","RCS_SIZE":"LARGE","CLASSIFICATION_TYPE":"U","MEAN_MOTION_DOT":"0.00013239","RA_OF_ASC_NODE":"346.0493","TLE_LINE2":"2 56788  70.0005 346.0493 0003398 273.6167  86.4640 15.69926892  4067","MEAN_MOTION":"15.69926892","OBJECT_ID":"2023-078X","LAUNCH_DATE":"2023-05-31","REV_AT_EPOCH":"406","MEAN_ANOMALY":"86.4640","SITE":"AFWTR","NORAD_CAT_ID":"56788","CENTER_NAME":"EARTH","EPHEMERIS_TYPE":"0","GP_ID":"234520079","APOAPSIS":"361.397","COUNTRY_CODE":"US","ELEMENT_SET_NO":"999","PERIOD":"91.724","OBJECT_NAME":"STARLINK-6336","SEMIMAJOR_AXIS":"6737.243"},{"REV_AT_EPOCH":"413","LAUNCH_DATE":"2023-05-31","OBJECT_ID":"2023-078Y","MEAN_ANOMALY":"90.3843","EPHEMERIS_TYPE":"0","SITE":"AFWTR","CENTER_NAME":"EARTH","NORAD_CAT_ID":"56789","GP_ID":"234527462","COUNTRY_CODE":"US","APOAPSIS":"361.634","ELEMENT_SET_NO":"999","PERIOD":"91.723","OBJECT_NAME":"STARLINK-6325","SEMIMAJOR_AXIS":"6737.206","REF_FRAME":"TEME","ECCENTRICITY":"0.00038040","TLE_LINE1":"1 56789U 23078Y   23175.64216271  .00023743  00000-0  19852-3 0  9999","MEAN_MOTION_DDOT":"0.0000000000000","DECAY_DATE":null,"TIME_SYSTEM":"UTC","BSTAR":"0.00019852000000","INCLINATION":"70.0004","OBJECT_TYPE":"PAYLOAD","EPOCH":"2023-06-24T15:24:42.858144","PERIAPSIS":"356.508","MEAN_ELEMENT_THEORY":"SGP4","FILE":"3941707","RCS_SIZE":"LARGE","ARG_OF_PERICENTER":"269.6917","MEAN_MOTION_DOT":"0.00023743","CLASSIFICATION_TYPE":"U","MEAN_MOTION":"15.69939934","TLE_LINE2":"2 56789  70.0004 344.7892 0003804 269.6917  90.3843 15.69939934  4133","RA_OF_ASC_NODE":"344.7892"},{"RCS_SIZE":"LARGE","ARG_OF_PERICENTER":"276.3475","OBJECT_TYPE":"PAYLOAD","EPOCH":"2023-06-23T21:05:21.816672","PERIAPSIS":"356.591","MEAN_ELEMENT_THEORY":"SGP4","FILE":"3941112","MEAN_MOTION":"15.69923734","RA_OF_ASC_NODE":"346.9441","TLE_LINE2":"2 56790  70.0009 346.9441 0003750 276.3475  83.7293 15.69923734  4011","MEAN_MOTION_DOT":"0.00021264","CLASSIFICATION_TYPE":"U","REF_FRAME":"TEME","DECAY_DATE":null,"TIME_SYSTEM":"UTC","INCLINATION":"70.0009","BSTAR":"0.00017815000000","ECCENTRICITY":"0.00037500","TLE_LINE1":"1 56790U 23078Z   23174.87872473  .00021264  00000-0  17815-3 0  9990","MEAN_MOTION_DDOT":"0.0000000000000","ELEMENT_SET_NO":"999","PERIOD":"91.724","COUNTRY_CODE":"US","APOAPSIS":"361.644","SEMIMAJOR_AXIS":"6737.252","OBJECT_NAME":"STARLINK-6345","MEAN_ANOMALY":"83.7293","REV_AT_EPOCH":"401","LAUNCH_DATE":"2023-05-31","OBJECT_ID":"2023-078Z","GP_ID":"234513020","EPHEMERIS_TYPE":"0","SITE":"AFWTR","CENTER_NAME":"EARTH","NORAD_CAT_ID":"56790"},{"INCLINATION":"70.0009","BSTAR":"0.00009577500000","DECAY_DATE":null,"TIME_SYSTEM":"UTC","TLE_LINE1":"1 56791U 23078AA  23175.19646422  .00011322  00000-0  95775-4 0  9996","MEAN_MOTION_DDOT":"0.0000000000000","ECCENTRICITY":"0.00034370","REF_FRAME":"TEME","TLE_LINE2":"2 56791  70.0009 346.0436 0003437 271.0808  88.9994 15.69930463  4068","RA_OF_ASC_NODE":"346.0436","MEAN_MOTION":"15.69930463","CLASSIFICATION_TYPE":"U","MEAN_MOTION_DOT":"0.00011322","ARG_OF_PERICENTER":"271.0808","RCS_SIZE":"LARGE","PERIAPSIS":"356.782","EPOCH":"2023-06-24T04:42:54.508608","MEAN_ELEMENT_THEORY":"SGP4","FILE":"3941437","OBJECT_TYPE":"PAYLOAD","GP_ID":"234520149","SITE":"AFWTR","NORAD_CAT_ID":"56791","CENTER_NAME":"EARTH","EPHEMERIS_TYPE":"0","MEAN_ANOMALY":"88.9994","OBJECT_ID":"2023-078AA","LAUNCH_DATE":"2023-05-31","REV_AT_EPOCH":"406","SEMIMAJOR_AXIS":"6737.233","OBJECT_NAME":"STARLINK-5977","PERIOD":"91.724","ELEMENT_SET_NO":"999","APOAPSIS":"361.414","COUNTRY_CODE":"US"},{"COUNTRY_CODE":"US","APOAPSIS":"361.601","ELEMENT_SET_NO":"999","PERIOD":"91.723","OBJECT_NAME":"STARLINK-6046","SEMIMAJOR_AXIS":"6737.199","LAUNCH_DATE":"2023-05-31","REV_AT_EPOCH":"412","OBJECT_ID":"2023-078AB","MEAN_ANOMALY":"88.3326","EPHEMERIS_TYPE":"0","NORAD_CAT_ID":"56792","CENTER_NAME":"EARTH","SITE":"AFWTR","GP_ID":"234527484","OBJECT_TYPE":"PAYLOAD","MEAN_ELEMENT_THEORY":"SGP4","FILE":"3941708","EPOCH":"2023-06-24T13:54:10.540224","PERIAPSIS":"356.526","RCS_SIZE":"LARGE","ARG_OF_PERICENTER":"271.7438","MEAN_MOTION_DOT":"0.00016825","CLASSIFICATION_TYPE":"U","MEAN_MOTION":"15.69942432","TLE_LINE2":"2 56792  70.0004 344.9713 0003766 271.7438  88.3326 15.69942432  4129","RA_OF_ASC_NODE":"344.9713","REF_FRAME":"TEME","ECCENTRICITY":"0.00037660","TLE_LINE1":"1 56792U 23078AB  23175.57928866  .00016825  00000-0  14130-3 0  9992","MEAN_MOTION_DDOT":"0.0000000000000","TIME_SYSTEM":"UTC","DECAY_DATE":null,"INCLINATION":"70.0004","BSTAR":"0.00014130000000"},{"GP_ID":"234505799","SITE":"AFWTR","NORAD_CAT_ID":"56793","CENTER_NAME":"EARTH","EPHEMERIS_TYPE":"0","MEAN_ANOMALY":"82.8937","OBJECT_ID":"2023-078AC","LAUNCH_DATE":"2023-05-31","REV_AT_EPOCH":"397","SEMIMAJOR_AXIS":"6737.269","OBJECT_NAME":"STARLINK-6052","PERIOD":"91.725","ELEMENT_SET_NO":"999","APOAPSIS":"361.845","COUNTRY_CODE":"US","BSTAR":"0.00009715800000","INCLINATION":"70.0011","DECAY_DATE":null,"TIME_SYSTEM":"UTC","MEAN_MOTION_DDOT":"0.0000000000000","TLE_LINE1":"1 56793U 23078AC  23174.62217124  .00011484  00000-0  97158-4 0  9994","ECCENTRICITY":"0.00040250","REF_FRAME":"TEME","RA_OF_ASC_NODE":"347.6528","TLE_LINE2":"2 56793  70.0011 347.6528 0004025 277.1801  82.8937 15.69917950  3971","MEAN_MOTION":"15.69917950","CLASSIFICATION_TYPE":"U","MEAN_MOTION_DOT":"0.00011484","ARG_OF_PERICENTER":"277.1801","RCS_SIZE":"LARGE","EPOCH":"2023-06-23T14:55:55.595136","PERIAPSIS":"356.422","MEAN_ELEMENT_THEORY":"SGP4","FILE":"3940834","OBJECT_TYPE":"PAYLOAD"},{"SEMIMAJOR_AXIS":"6737.244","OBJECT_NAME":"STARLINK-6060","PERIOD":"91.724","ELEMENT_SET_NO":"999","APOAPSIS":"361.526","COUNTRY_CODE":"US","GP_ID":"234520656","SITE":"AFWTR","NORAD_CAT_ID":"56794","CENTER_NAME":"EARTH","EPHEMERIS_TYPE":"0","MEAN_ANOMALY":"84.9167","OBJECT_ID":"2023-078AD","LAUNCH_DATE":"2023-05-31","REV_AT_EPOCH":"406","RA_OF_ASC_NODE":"346.0476","TLE_LINE2":"2 56794  69.9999 346.0476 0003588 275.1619  84.9167 15.69926738  4060","MEAN_MOTION":"15.69926738","CLASSIFICATION_TYPE":"U","MEAN_MOTION_DOT":"0.00003544","ARG_OF_PERICENTER":"275.1619","RCS_SIZE":"LARGE","PERIAPSIS":"356.691","EPOCH":"2023-06-24T04:43:03.516672","MEAN_ELEMENT_THEORY":"SGP4","FILE":"3941437","OBJECT_TYPE":"PAYLOAD","INCLINATION":"69.9999","BSTAR":"0.00003122800000","DECAY_DATE":null,"TIME_SYSTEM":"UTC","TLE_LINE1":"1 56794U 23078AD  23175.19656848  .00003544  00000-0  31228-4 0  9992","MEAN_MOTION_DDOT":"0.0000000000000","ECCENTRICITY":"0.00035880","REF_FRAME":"TEME"},{"GP_ID":"234520153","NORAD_CAT_ID":"56795","CENTER_NAME":"EARTH","SITE":"AFWTR","EPHEMERIS_TYPE":"0","MEAN_ANOMALY":"84.9128","OBJECT_ID":"2023-078AE","REV_AT_EPOCH":"407","LAUNCH_DATE":"2023-05-31","SEMIMAJOR_AXIS":"6737.236","OBJECT_NAME":"STARLINK-6061","ELEMENT_SET_NO":"999","PERIOD":"91.724","APOAPSIS":"361.463","COUNTRY_CODE":"US","INCLINATION":"70.0007","BSTAR":"0.00007342800000","TIME_SYSTEM":"UTC","DECAY_DATE":null,"MEAN_MOTION_DDOT":"0.0000000000000","TLE_LINE1":"1 56795U 23078AE  23175.25870403  .00008627  00000-0  73428-4 0  9990","ECCENTRICITY":"0.00035050","REF_FRAME":"TEME","TLE_LINE2":"2 56795  70.0007 345.8589 0003505 275.1668  84.9128 15.69929220  4076","RA_OF_ASC_NODE":"345.8589","MEAN_MOTION":"15.69929220","CLASSIFICATION_TYPE":"U","MEAN_MOTION_DOT":"0.00008627","ARG_OF_PERICENTER":"275.1668","RCS_SIZE":"LARGE","FILE":"3941437","MEAN_ELEMENT_THEORY":"SGP4","PERIAPSIS":"356.740","EPOCH":"2023-06-24T06:12:32.028192","OBJECT_TYPE":"PAYLOAD"},{"REF_FRAME":"TEME","BSTAR":"0.00015015000000","INCLINATION":"70.0009","TIME_SYSTEM":"UTC","DECAY_DATE":null,"MEAN_MOTION_DDOT":"0.0000000000000","TLE_LINE1":"1 56796U 23078AF  23175.57907700  .00017897  00000-0  15015-3 0  9993","ECCENTRICITY":"0.00034210","ARG_OF_PERICENTER":"267.8519","RCS_SIZE":"LARGE","MEAN_ELEMENT_THEORY":"SGP4","FILE":"3941701","PERIAPSIS":"356.746","EPOCH":"2023-06-24T13:53:52.252800","OBJECT_TYPE":"PAYLOAD","TLE_LINE2":"2 56796  70.0009 344.9712 0003421 267.8519  92.2285 15.69946820  4124","RA_OF_ASC_NODE":"344.9712","MEAN_MOTION":"15.69946820","CLASSIFICATION_TYPE":"U","MEAN_MOTION_DOT":"0.00017897","MEAN_ANOMALY":"92.2285","OBJECT_ID":"2023-078AF","REV_AT_EPOCH":"412","LAUNCH_DATE":"2023-05-31","GP_ID":"234526733","CENTER_NAME":"EARTH","NORAD_CAT_ID":"56796","SITE":"AFWTR","EPHEMERIS_TYPE":"0","ELEMENT_SET_NO":"999","PERIOD":"91.723","APOAPSIS":"361.356","COUNTRY_CODE":"US","SEMIMAJOR_AXIS":"6737.186","OBJECT_NAME":"STARLINK-6049"}];
